ONEWEB-0395             
1 50475U 21132G   25136.42383331 -.00000635  00000+0 -18261-2 0  9999
2 50475  87.8815 100.1703 0002302  84.8659 275.2731 13.11422583163714
ONEWEB-0396             
1 50476U 21132H   25136.33332896  .00000128  00000+0  29262-3 0  9999
2 50476  87.9159  54.3227 0002053  74.8643 285.2716 13.18684889169337
ONEWEB-0397             
1 50477U 21132J   25136.27167662  .00000121  00000+0  27295-3 0  9997
2 50477  87.9155  54.3363 0001927  72.4587 287.6755 13.18684370169306
ONEWEB-0398             
1 50478U 21132K   25136.39162030 -.00000438  00000+0 -12713-2 0  9996
2 50478  87.8814 100.1429 0002235  95.2357 264.9026 13.11417948163606
ONEWEB-0399             
1 50479U 21132L   25136.37805750 -.00000353  00000+0 -10329-2 0  9995
2 50479  87.8815 100.1678 0002113  74.1187 286.0174 13.11414749163599
ONEWEB-0400             
1 50480U 21132M   25136.25111966  .00000123  00000+0  27834-3 0  9996
2 50480  87.9155  54.3318 0001999  84.4881 275.6479 13.18688799169296
ONEWEB-0401             
1 50481U 21132N   25136.29380387  .00000038  00000+0  63136-4 0  9997
2 50481  87.9155  54.3168 0001836  73.9051 286.2283 13.18684362169307
ONEWEB-0402             
1 50482U 21132P   25136.33489796  .00000116  00000+0  26205-3 0  9999
2 50482  87.9153  54.3056 0001615  62.0441 298.0855 13.18684433169337
